OBJECT_NAME,OBJECT_ID,EPOCH,MEAN_MOTION,ECCENTRICITY,INCLINATION,RA_OF_ASC_NODE,ARG_OF_PERICENTER,MEAN_ANOMALY,EPHEMERIS_TYPE,CLASSIFICATION_TYPE,NORAD_CAT_ID,ELEMENT_SET_NO,REV_AT_EPOCH,BSTAR,MEAN_MOTION_DOT,MEAN_MOTION_DDOT
LEMUR-2-LAILA,2025-276DQ,2026-06-06T10:23:48.117120,15.21152512,.00014724,97.4170,231.4809,147.8107,212.3219,0,U,66776,999,2881,.36279352E-3,.8014E-4,0
LEMUR-2-CELIJO-SB-PK,2025-276DW,2026-06-06T10:18:11.373120,14.99845445,.00088315,97.5276,228.5585,158.5528,201.6068,0,U,66781,999,2101,.73136016E-3,.9014E-4,0
LEMUR-2-FINNIAN,2025-276DX,2026-06-06T11:25:12.048960,15.00241974,.00084109,97.5254,228.8104,121.5267,238.6780,0,U,66782,999,1839,.70691683E-3,.8801E-4,0
LEMUR-2-STARLIGHT,2025-276DY,2026-06-06T03:44:11.116608,14.98925272,.00152349,97.5273,228.1699,159.8654,200.3173,0,U,66783,999,2854,.71867317E-3,.866E-4,0
LEMUR-2-TARTIFLETTE,2025-276DZ,2026-06-06T10:06:47.498112,14.98949627,.00138965,97.5274,228.4322,165.1491,195.0143,0,U,66784,999,2858,.85100158E-3,.1027E-3,0
LEMUR-2-VUKASIN,2025-276EA,2026-06-06T10:11:02.099040,15.00246779,.00062744,97.5301,228.7061,149.6616,210.4972,0,U,66785,999,2853,.72158694E-3,.8984E-4,0
LEMUR-2-HOTSPUR-TOM,2025-276EB,2026-06-06T03:30:18.844416,14.98820107,.00151547,97.5241,228.1517,161.7221,198.4550,0,U,66786,999,2847,.79560754E-3,.9568E-4,0
LEMUR-2-MYRA,2025-276EC,2026-06-06T10:54:55.456128,15.00100506,.00152999,97.5219,228.6895,177.2463,182.8848,0,U,66787,999,2860,.7117671E-3,.8844E-4,0
LEMUR-2 FIKRETDENGIZ,2026-004A,2026-06-06T12:16:37.331616,14.88248406,.00091387,97.8016,156.2347,164.5370,195.6128,0,U,67363,999,2169,.49082071E-3,.4482E-4,0
TWILIGHT-1 OBJECT B,2026-004B,2026-06-06T12:45:37.221120,14.87665646,.00092209,97.8060,156.2739,155.4820,204.6837,0,U,67364,999,2170,.26808758E-3,.2388E-4,0
LEMUR-2-MARIO-SOUSA,2026-004C,2026-06-05T19:46:52.749696,14.88423624,.00086636,97.7995,155.5546,166.5581,193.5868,0,U,67365,999,2160,.63097596E-3,.5803E-4,0
LEMUR-2-SONNENBLUME,2026-004E,2026-06-06T11:50:44.065248,14.88262544,.00083453,97.7982,156.2017,166.5825,193.5615,0,U,67367,999,2170,.36986943E-3,.3364E-4,0
LEMUR-2-WOBLER,2026-004F,2026-06-05T21:12:05.918112,14.88439297,.00086376,97.8042,155.7125,157.6666,202.4929,0,U,67368,999,2161,.61119435E-3,.5622E-4,0
LEMUR-2-GRAM-E-SUE,2026-004H,2026-06-06T11:29:31.905600,14.88424556,.00072654,97.7974,156.2017,166.8245,193.3163,0,U,67370,999,2170,.3625826E-3,.331E-4,0
LEMUR-2-KATIE,2026-004AA,2026-06-06T06:37:17.993280,14.89973500,.0004625,97.8041,156.4259,114.7890,245.3809,0,U,67387,999,2168,.66195486E-3,.6328E-4,0
LEMUR-2-HCS-BAZUS,2026-004AB,2026-06-06T11:26:07.626624,14.89969345,.0004297,97.8026,156.6065,110.0791,250.0890,0,U,67388,999,2171,.71926937E-3,.688E-4,0
